{
    "links": {
        "self": "http://www.neowsapp.com/rest/v1/neo/3757407?api_key=iIulBulltgU6a56xZRHN4H3l9WmuAYTsLGpBGhQ2"
    },
    "id": "3757407",
    "neo_reference_id": "3757407",
    "name": "(2016 PY39)",
    "designation": "2016 PY39",
    "nasa_jpl_url": "http://ssd.jpl.nasa.gov/sbdb.cgi?sstr=3757407",
    "absolute_magnitude_h": 23.4,
    "estimated_diameter": {
        "kilometers": {
            "estimated_diameter_min": 0.0555334912,
            "estimated_diameter_max": 0.1241766613
        },
        "meters": {
            "estimated_diameter_min": 55.5334911581,
            "estimated_diameter_max": 124.1766612574
        },
        "miles": {
            "estimated_diameter_min": 0.0345069009,
            "estimated_diameter_max": 0.0771597762
        },
        "feet": {
            "estimated_diameter_min": 182.1964991311,
            "estimated_diameter_max": 407.4037573197
        }
    },
    "is_potentially_hazardous_asteroid": false,
    "close_approach_data": [
        {
            "close_approach_date": "2016-07-29",
            "close_approach_date_full": "2016-Jul-29 17:32",
            "epoch_date_close_approach": 1469813520000,
            "relative_velocity": {
                "kilometers_per_second": "2.8560482661",
                "kilometers_per_hour": "10281.7737579293",
                "miles_per_hour": "6388.69436642"
            },
            "miss_distance": {
                "astronomical": "0.2642968815",
                "lunar": "102.8114869035",
                "kilometers": "39538250.520042405",
                "miles": "24567929.643118989"
            },
            "orbiting_body": "Earth"
        }
    ],
    "orbital_data": {
        "orbit_id": "6",
        "orbit_determination_date": "2017-04-06 08:24:33",
        "first_observation_date": "2016-08-08",
        "last_observation_date": "2016-08-30",
        "data_arc_in_days": 22,
        "observations_used": 21,
        "orbit_uncertainty": "8",
        "minimum_orbit_intersection": ".263533",
        "jupiter_tisserand_invariant": "3.282",
        "epoch_osculation": "2457613.5",
        "eccentricity": ".49128104736588",
        "semi_major_axis": "2.51149614813893",
        "inclination": "1.37040972099144",
        "ascending_node_longitude": "14.51789753906535",
        "orbital_period": "1453.775017775387",
        "perihelion_distance": "1.277645690025863",
        "perihelion_argument": "292.4614390555446",
        "aphelion_distance": "3.745346606251996",
        "perihelion_time": "2457598.331883353088",
        "mean_anomaly": "3.756098382571043",
        "mean_motion": ".2476311641060413",
        "equinox": "J2000",
        "orbit_class": {
            "orbit_class_type": "AMO",
            "orbit_class_description": "Near-Earth asteroid orbits similar to that of 1221 Amor",
            "orbit_class_range": "1.017 AU < q (perihelion) < 1.3 AU"
        }
    },
    "is_sentry_object": false
}